[{"OBJECT_NAME":"UHETSAT","OBJECT_ID":"2023-185E","EPOCH":"2026-03-09T22:39:26.455680","MEAN_MOTION":15.29797662,"ECCENTRICITY":0.00118435,"INCLINATION":97.3584,"RA_OF_ASC_NODE":137.3576,"ARG_OF_PERICENTER":307.7346,"MEAN_ANOMALY":52.2821,"EPHEMERIS_TYPE":0,"CLASSIFICATION_TYPE":"U","NORAD_CAT_ID":58466,"ELEMENT_SET_NO":999,"REV_AT_EPOCH":12611,"BSTAR":0.00030513019,"MEAN_MOTION_DOT":8.749e-5,"MEAN_MOTION_DDOT":0},{"OBJECT_NAME":"STARLINK-31558","OBJECT_ID":"2024-045U","EPOCH":"2026-03-09T10:00:48.820608","MEAN_MOTION":15.27570414,"ECCENTRICITY":0.00012334,"INCLINATION":43.0028,"RA_OF_ASC_NODE":93.7396,"ARG_OF_PERICENTER":257.8157,"MEAN_ANOMALY":102.2556,"EPHEMERIS_TYPE":0,"CLASSIFICATION_TYPE":"U","NORAD_CAT_ID":59196,"ELEMENT_SET_NO":999,"REV_AT_EPOCH":11313,"BSTAR":3.7583813e-5,"MEAN_MOTION_DOT":7.72e-6,"MEAN_MOTION_DDOT":0}]
